IRIDIUM 57              
1 25273U 98019B   24355.06257234  .00000644  00000+0  21653-3 0  9997
2 25273  86.3975 220.2399 0001966  83.8483 276.2938 14.35642586399295
IRIDIUM 63              
1 25286U 98021B   24354.52293639  .00000850  00000+0  28474-3 0  9990
2 25286  86.4000 157.4580 0002109  93.7746 266.3692 14.36254150398051
IRIDIUM 69              
1 25319U 98026A   24354.52703739  .00000771  00000+0  23595-3 0  9990
2 25319  86.3998 171.2699 0000583 210.1068 150.0098 14.40595417397196
IRIDIUM 71              
1 25320U 98026B   24354.55997713  .00000849  00000+0  25897-3 0  9995
2 25320  86.3994 165.9855 0001760  20.7455 339.3816 14.40835133397722
IRIDIUM 73              
1 25344U 98032C   24354.89295706  .00001397  00000+0  34655-3 0  9999
2 25344  86.4422 122.9623 0001492 104.9333 255.2037 14.51251819404852
IRIDIUM 82              
1 25467U 98051A   24355.01936219  .00020910  00000+0  82269-3 0  9998
2 25467  86.3733 196.9660 0104014 252.1747 106.8128 15.20546620396624
